NORAD_CAT_ID,OBJECT_NAME,OBJECT_TYPE,EPOCH,MEAN_MOTION,ECCENTRICITY,INCLINATION,RA_OF_ASC_NODE,ARG_OF_PERICENTER,MEAN_ANOMALY,BSTAR,MEAN_MOTION_DOT,MEAN_MOTION_DDOT,TLE_LINE0,TLE_LINE1,TLE_LINE2,SEMIMAJOR_AXIS,PERIOD,APOGEE,PERIGEE,DECAYED
56779.0,STARLINK-6231,PAYLOAD,2024-05-28 10:46:54,14.98334123,0.0003131,69.9984,163.9478,267.8439,92.2362,1.2646e-06,-7.8e-07,0.0,0 STARLINK-6231,1 56779U 23078N   24149.44924531 -.00000078  00000-0  12646-5 0  9996,2 56779  69.9984 163.9478 0003131 267.8439  92.2362 14.98334123 55761,6950.18,96.107,574.221,569.869,0.0
56779.0,STARLINK-6231,PAYLOAD,2024-05-29 04:24:23,14.98326943,0.0003123,69.9984,162.0965,267.3273,92.7528,-1.802e-05,-3.08e-06,0.0,0 STARLINK-6231,1 56779U 23078N   24150.18360981 -.00000308  00000-0 -18020-4 0  9990,2 56779  69.9984 162.0965 0003123 267.3273  92.7528 14.98326943 56147,6950.202,96.107,574.238,569.897,0.0
56779.0,STARLINK-6231,PAYLOAD,2024-05-29 10:48:56,14.98326257,0.0003125,69.9983,161.423,267.5173,92.5628,-2.4288e-05,-3.83e-06,0.0,0 STARLINK-6231,1 56779U 23078N   24150.45065084 -.00000383  00000-0 -24288-4 0  9992,2 56779  69.9983 161.4230 0003125 267.5173  92.5628 14.98326257 55918,6950.204,96.107,574.241,569.898,0.0
56779.0,STARLINK-6231,PAYLOAD,2024-05-30 04:26:24,14.98330833,0.0003129,69.9983,159.5716,266.8414,93.2387,-2.1412e-05,-3.49e-06,0.0,0 STARLINK-6231,1 56779U 23078N   24151.18500810 -.00000349  00000-0 -21412-4 0  9992,2 56779  69.9983 159.5716 0003129 266.8414  93.2387 14.98330833 56296,6950.19,96.107,574.23,569.881,0.0
56779.0,STARLINK-6231,PAYLOAD,2024-05-30 10:50:56,14.98330958,0.0003121,69.9982,158.898,267.272,92.8082,-1.5743e-05,-2.81e-06,0.0,0 STARLINK-6231,1 56779U 23078N   24151.45204776 -.00000281  00000-0 -15743-4 0  9999,2 56779  69.9982 158.8980 0003121 267.2720  92.8082 14.98330958 56067,6950.19,96.107,574.224,569.886,0.0
56779.0,STARLINK-6231,PAYLOAD,2024-05-31 04:28:25,14.98328675,0.0003157,69.9981,157.0462,268.6624,91.4174,3.7848e-05,3.59e-06,0.0,0 STARLINK-6231,1 56779U 23078N   24152.18640755  .00000359  00000-0  37848-4 0  9995,2 56779  69.9981 157.0462 0003157 268.6624  91.4174 14.98328675 56441,6950.197,96.107,574.256,569.868,0.0
56779.0,STARLINK-6231,PAYLOAD,2024-05-31 10:52:57,14.98330176,0.0003123,69.9982,156.3728,268.0993,91.9809,5.2959e-05,5.39e-06,0.0,0 STARLINK-6231,1 56779U 23078N   24152.45344614  .00000539  00000-0  52959-4 0  9990,2 56779  69.9982 156.3728 0003123 268.0993  91.9809 14.98330176 56219,6950.192,96.107,574.228,569.887,0.0
56779.0,STARLINK-6231,PAYLOAD,2024-05-31 17:17:30,14.98329612,0.000313,69.9982,155.6994,269.9598,90.1202,2.7786e-05,2.39e-06,0.0,0 STARLINK-6231,1 56779U 23078N   24152.72048717  .00000239  00000-0  27786-4 0  9992,2 56779  69.9982 155.6994 0003130 269.9598  90.1202 14.98329612 56250,6950.194,96.107,574.235,569.884,0.0
56779.0,STARLINK-6231,PAYLOAD,2024-06-01 04:30:26,14.98330005,0.0003083,69.9983,154.5214,268.8391,91.2415,2.2068e-06,-6.7e-07,0.0,0 STARLINK-6231,1 56779U 23078N   24153.18780744 -.00000067  00000-0  22068-5 0  9995,2 56779  69.9983 154.5214 0003083 268.8391  91.2415 14.98330005 56593,6950.193,96.107,574.201,569.915,0.0
56779.0,STARLINK-6231,PAYLOAD,2024-06-01 10:54:58,14.9833022,0.0003083,69.9983,153.8479,269.7648,90.3157,4.4913e-06,-3.9e-07,0.0,0 STARLINK-6231,1 56779U 23078N   24153.45484717 -.00000039  00000-0  44913-5 0  9998,2 56779  69.9983 153.8479 0003083 269.7648  90.3157 14.98330220 56360,6950.192,96.107,574.2,569.914,0.0
56779.0,STARLINK-6231,PAYLOAD,2024-06-02 04:32:27,14.98329441,0.0003056,69.9983,151.9963,269.1865,90.8944,-2.2125e-05,-3.57e-06,0.0,0 STARLINK-6231,1 56779U 23078N   24154.18920801 -.00000357  00000-0 -22125-4 0  9992,2 56779  69.9983 151.9963 0003056 269.1865  90.8944 14.98329441 56746,6950.195,96.107,574.184,569.936,0.0
56779.0,STARLINK-6231,PAYLOAD,2024-06-02 09:20:51,14.98328914,0.0003062,69.9983,151.4914,269.0366,91.0442,-2.6845e-05,-4.13e-06,0.0,0 STARLINK-6231,1 56779U 23078N   24154.38948847 -.00000413  00000-0 -26845-4 0  9990,2 56779  69.9983 151.4914 0003062 269.0366  91.0442 14.98328914 56503,6950.196,96.107,574.189,569.933,0.0
56779.0,STARLINK-6231,PAYLOAD,2024-06-03 04:34:28,14.98327791,0.0003091,69.9983,149.4714,268.9916,91.0889,-1.1971e-05,-2.36e-06,0.0,0 STARLINK-6231,1 56779U 23078N   24155.19060899 -.00000236  00000-0 -11971-4 0  9999,2 56779  69.9983 149.4714 0003091 268.9916  91.0889 14.98327791 56898,6950.2,96.107,574.213,569.916,0.0
56779.0,STARLINK-6231,PAYLOAD,2024-06-03 09:22:52,14.98328196,0.0003086,69.9984,148.9665,269.0988,90.9817,-6.6747e-06,-1.73e-06,0.0,0 STARLINK-6231,1 56779U 23078N   24155.39088884 -.00000173  00000-0 -66747-5 0  9997,2 56779  69.9984 148.9665 0003086 269.0988  90.9817 14.98328196 56656,6950.198,96.107,574.208,569.919,0.0
56779.0,STARLINK-6231,PAYLOAD,2024-06-03 17:23:32,14.98330126,0.0003096,69.9985,148.1249,269.0994,90.9811,1.5672e-05,9.4e-07,0.0,0 STARLINK-6231,1 56779U 23078N   24155.72468706  .00000094  00000-0  15672-4 0  9999,2 56779  69.9985 148.1249 0003096 269.0994  90.9811 14.98330126 56701,6950.193,96.107,574.209,569.906,0.0
56779.0,STARLINK-6231,PAYLOAD,2024-06-04 09:24:53,14.98333932,0.0003106,69.9985,146.4415,269.0449,91.0355,6.4075e-05,6.72e-06,0.0,0 STARLINK-6231,1 56779U 23078N   24156.39228226  .00000672  00000-0  64075-4 0  9997,2 56779  69.9985 146.4415 0003106 269.0449  91.0355 14.98333932 57078,6950.181,96.107,574.204,569.887,0.0
56779.0,STARLINK-6231,PAYLOAD,2024-06-05 09:26:54,14.98331501,0.0003073,69.9988,143.9168,269.2027,90.878,3.1431e-05,2.82e-06,0.0,0 STARLINK-6231,1 56779U 23078N   24157.39368317  .00000282  00000-0  31431-4 0  9991,2 56779  69.9988 143.9168 0003073 269.2027  90.8780 14.98331501 57221,6950.188,96.107,574.189,569.917,0.0
56779.0,STARLINK-6231,PAYLOAD,2024-06-05 15:51:26,14.98329151,0.0003061,69.9989,143.2434,269.2975,90.7833,-6.7712e-06,-1.74e-06,0.0,0 STARLINK-6231,1 56779U 23078N   24157.66072538 -.00000174  00000-0 -67712-5 0  9992,2 56779  69.9989 143.2434 0003061 269.2975  90.7833 14.98329151 56999,6950.196,96.107,574.188,569.933,0.0
56779.0,STARLINK-6231,PAYLOAD,2024-06-06 09:28:55,14.9833004,0.000287,69.9994,141.3927,267.33,92.7531,-5.6805e-05,-7.71e-06,0.0,0 STARLINK-6231,1 56779U 23078N   24158.39508638 -.00000771  00000-0 -56805-4 0  9991,2 56779  69.9994 141.3927 0002870 267.3300  92.7531 14.98330040 57378,6950.193,96.107,574.052,570.063,0.0
56779.0,STARLINK-6231,PAYLOAD,2024-06-07 07:54:48,14.98329888,0.0002716,69.9998,139.0352,270.9368,89.1479,4.2374e-05,4.13e-06,0.0,0 STARLINK-6231,1 56779U 23078N   24159.32972386  .00000413  00000-0  42374-4 0  9997,2 56779  69.9998 139.0352 0002716 270.9368  89.1479 14.98329888 57246,6950.193,96.107,573.946,570.171,0.0
56779.0,STARLINK-6231,PAYLOAD,2024-06-07 15:55:28,14.98338279,0.0002865,69.9999,138.1937,270.2894,89.7937,-8.5896e-05,-1.118e-05,0.0,0 STARLINK-6231,1 56779U 23078N   24159.66352090 -.00001118  00000-0 -85896-4 0  9999,2 56779  69.9999 138.1937 0002865 270.2894  89.7937 14.98338279 57562,6950.167,96.106,574.024,570.041,0.0
56779.0,STARLINK-6231,PAYLOAD,2024-06-07 22:20:00,14.98329612,0.0002906,69.9995,137.5199,271.2667,88.8159,4.9752e-05,5.01e-06,0.0,0 STARLINK-6231,1 56779U 23078N   24159.93056253  .00000501  00000-0  49752-4 0  9995,2 56779  69.9995 137.5199 0002906 271.2667  88.8159 14.98329612 57338,6950.194,96.107,574.079,570.039,0.0
56779.0,STARLINK-6231,PAYLOAD,2024-06-08 07:56:48,14.98334357,0.0002748,69.9995,136.5101,267.297,92.7875,6.8664e-05,7.26e-06,0.0,0 STARLINK-6231,1 56779U 23078N   24160.33111840  .00000726  00000-0  68664-4 0  9997,2 56779  69.9995 136.5101 0002748 267.2970  92.7875 14.98334357 57393,6950.179,96.107,573.954,570.135,0.0
56779.0,STARLINK-6231,PAYLOAD,2024-06-08 15:57:29,14.98329176,0.0002717,70.0004,135.6671,272.3657,87.7191,-1.0173e-05,-2.14e-06,0.0,0 STARLINK-6231,1 56779U 23078N   24160.66492367 -.00000214  00000-0 -10173-4 0  9995,2 56779  70.0004 135.6671 0002717 272.3657  87.7191 14.98329176 57718,6950.195,96.107,573.949,570.172,0.0
56779.0,STARLINK-6231,PAYLOAD,2024-06-09 07:58:50,14.98326843,0.0002897,69.9996,133.9849,269.052,91.0307,-6.9581e-05,-9.23e-06,0.0,0 STARLINK-6231,1 56779U 23078N   24161.33252670 -.00000923  00000-0 -69581-4 0  9995,2 56779  69.9996 133.9849 0002897 269.0520  91.0307 14.98326843 57540,6950.203,96.107,574.081,570.054,0.0
56779.0,STARLINK-6231,PAYLOAD,2024-06-09 15:59:30,14.98328647,0.0002924,69.9996,133.1436,269.1642,90.9182,-4.562e-05,-6.37e-06,0.0,0 STARLINK-6231,1 56779U 23078N   24161.66632517 -.00000637  00000-0 -45620-4 0  9993,2 56779  69.9996 133.1436 0002924 269.1642  90.9182 14.98328647 57869,6950.197,96.107,574.094,570.03,0.0
56779.0,STARLINK-6231,PAYLOAD,2024-06-09 22:24:02,14.98329753,0.0002935,69.9993,132.4702,269.0312,91.051,-2.2456e-05,-3.61e-06,0.0,0 STARLINK-6231,1 56779U 23078N   24161.93336375 -.00000361  00000-0 -22456-4 0  9992,2 56779  69.9993 132.4702 0002935 269.0312  91.0510 14.98329753 57630,6950.194,96.107,574.099,570.019,0.0
56779.0,STARLINK-6231,PAYLOAD,2024-06-10 08:00:50,14.98336739,0.0002794,69.9992,131.4609,266.4281,93.6558,-8.9397e-05,-1.16e-05,0.0,0 STARLINK-6231,1 56779U 23078N   24162.33392062 -.00001160  00000-0 -89397-4 0  9997,2 56779  69.9992 131.4609 0002794 266.4281  93.6558 14.98336739 57961,6950.172,96.107,573.979,570.095,0.0
56779.0,STARLINK-6231,PAYLOAD,2024-06-10 22:26:03,14.98325836,0.0002975,69.9994,129.9459,270.9605,89.1213,5.9784e-05,6.2e-06,0.0,0 STARLINK-6231,1 56779U 23078N   24162.93476381  .00000620  00000-0  59784-4 0  9995,2 56779  69.9994 129.9459 0002975 270.9605  89.1213 14.98325836 57783,6950.206,96.107,574.138,570.003,0.0
56779.0,STARLINK-6231,PAYLOAD,2024-06-11 04:50:35,14.9832704,0.0002894,69.9993,129.2728,269.2213,90.8614,0.00010336,1.14e-05,0.0,0 STARLINK-6231,1 56779U 23078N   24163.20180222  .00001140  00000-0  10336-3 0  9999,2 56779  69.9993 129.2728 0002894 269.2213  90.8614 14.98327040 58098,6950.202,96.107,574.078,570.056,0.0
